OBJECT_NAME,OBJECT_ID,EPOCH,MEAN_MOTION,ECCENTRICITY,INCLINATION,RA_OF_ASC_NODE,ARG_OF_PERICENTER,MEAN_ANOMALY,EPHEMERIS_TYPE,CLASSIFICATION_TYPE,NORAD_CAT_ID,ELEMENT_SET_NO,REV_AT_EPOCH,BSTAR,MEAN_MOTION_DOT,MEAN_MOTION_DDOT
OSCAR 7 (AO-7),1974-089B,2026-06-20T07:46:20.596800,12.53698149,.00126091,101.9899,184.6033,124.3014,247.3322,0,U,7530,999,36091,-.10318784E-4,-.48E-6,0
PHASE 3B (AO-10),1983-058B,2026-06-19T07:29:00.728736,2.05869727,.60101018,25.9140,219.2125,116.2527,316.1180,0,U,14129,999,29553,0,.155E-5,0
UOSAT 2 (UO-11),1984-021B,2026-06-20T04:11:30.849504,14.90789334,.00079125,97.8059,136.7159,162.8520,197.2967,0,U,14781,999,25757,.11015733E-3,.1028E-4,0
LUSAT (LO-19),1990-005G,2026-06-20T07:43:02.362368,14.34123955,.00112886,98.8848,193.2136,191.6338,168.4586,0,U,20442,999,90284,.41168865E-4,.68E-6,0
EYESAT A (AO-27),1993-061C,2026-06-20T03:30:53.143488,14.30942955,.00095418,98.6879,238.5590,92.1826,268.0449,0,U,22825,999,70742,.4202775E-4,.66E-6,0
ITAMSAT (IO-26),1993-061D,2026-06-20T02:59:58.103520,14.31369966,.00100304,98.6826,238.4553,77.4626,282.7678,0,U,22826,999,70773,.41439208E-4,.65E-6,0
RADIO ROSTO (RS15),1994-085A,2026-06-20T07:24:39.306528,11.27583503,.01560358,64.8186,298.1674,3.2975,356.8941,0,U,23439,999,29625,.39947967E-3,-.28E-6,0
JAS-2 (FO-29),1996-046B,2026-06-20T01:07:13.688544,13.53274564,.0350925,98.5237,19.5270,89.0333,275.0987,0,U,24278,999,47355,.17772829E-4,-.15E-6,0
TECHSAT 1B (GO-32),1998-043D,2026-06-20T05:24:28.016064,14.24428866,.00012144,99.0068,164.0607,156.9177,203.2056,0,U,25397,999,45176,.33010559E-4,.3E-6,0
ISS (ZARYA),1998-067A,2026-06-20T03:45:31.104864,15.49327998,.00045551,51.6329,285.3962,207.7610,152.3136,0,U,25544,999,57221,.16345057E-3,.8669E-4,0
PCSAT (NO-44),2001-043C,2026-06-20T07:15:23.551488,14.31957024,.0006064,67.0502,236.2148,264.6638,95.3772,0,U,26931,999,29089,.48882023E-4,.48E-6,0
SAUDISAT 1C (SO-50),2002-058C,2026-06-20T04:33:14.048352,14.83052340,.00751612,64.5514,119.6951,261.9163,97.3411,0,U,27607,999,26490,.10356315E-3,.729E-5,0
CUTE-1 (CO-55),2003-031E,2026-06-19T13:35:11.395968,14.24336935,.00096891,98.6736,179.0951,171.1603,188.9749,0,U,27844,999,19201,.10623568E-3,.202E-5,0
CUBESAT XI-IV (CO-57),2003-031J,2026-06-19T23:27:32.070528,14.23622052,.00092194,98.6765,179.2116,188.6492,171.4529,0,U,27848,999,19177,.9310277E-4,.169E-5,0
MOZHAETS 4 (RS22),2003-042A,2026-06-20T08:19:45.279840,14.73469403,.0009926,98.3471,355.7944,258.2610,222.2118,0,U,27939,999,21601,.27352716E-4,.124E-5,0
CUBESAT XI-V,2005-043F,2026-06-19T21:59:55.823712,14.72637619,.00138429,98.2988,326.5955,191.8457,168.2426,0,U,28895,999,10215,.17521112E-3,.1064E-4,0
CUTE-1.7+APD II (CO-65),2008-021C,2026-06-20T05:33:50.546592,15.09475862,.00094629,97.8278,152.7136,29.2800,330.8957,0,U,32785,999,98565,.29831987E-3,.4715E-4,0
SEEDS II (CO-66),2008-021J,2026-06-19T22:37:30.143136,15.32829868,.00006922,97.7524,168.9721,347.0777,13.0446,0,U,32791,999,98771,.50131848E-3,.15827E-3,0
YUBILEINY (RS30),2008-025A,2026-06-20T05:41:25.985184,12.43179508,.00187441,82.5041,353.5420,306.9538,52.9825,0,U,32953,999,82007,.11978546E-3,.26E-6,0
KKS-1 (KISEKI),2009-002H,2026-06-20T07:01:18.034176,14.83130633,.00064233,98.1188,93.7841,283.6883,76.3615,0,U,33499,999,93665,.1304131E-3,.1007E-4,0
SWISSCUBE,2009-051B,2026-06-20T04:17:47.591520,14.62486325,.00061712,98.4033,79.1195,192.6984,167.4062,0,U,35932,999,88959,.15003291E-3,.711E-5,0
BEESAT-1,2009-051C,2026-06-19T17:03:37.003680,14.61723870,.00043714,98.3961,78.2733,207.4388,152.6582,0,U,35933,999,88955,.13076923E-3,.603E-5,0
ITUPSAT1,2009-051E,2026-06-20T06:02:56.836608,14.60444493,.00064031,98.4046,78.0115,222.9093,137.1608,0,U,35935,999,88918,.12172225E-3,.541E-5,0
XIWANG-1 (HOPE-1),2009-072B,2026-06-20T06:48:44.218368,13.16440875,.00069258,100.4034,125.0670,223.7061,136.3504,0,U,36122,999,79341,.65508148E-3,.206E-5,0
O/OREOS (USA 219),2010-062C,2026-06-20T03:25:38.494560,14.93754530,.00126578,71.9702,73.6446,56.8090,303.4293,0,U,37224,999,11708,.1605045E-3,.164E-4,0
JUGNU,2011-058B,2026-06-19T09:50:01.708800,14.13777315,.00186232,19.9617,294.9273,100.5982,300.1635,0,U,37839,999,75934,.66042981E-4,.394E-5,0
SRMSAT,2011-058D,2026-06-19T08:38:13.672608,14.11575972,.00117441,19.9728,46.3158,227.6220,288.1945,0,U,37841,999,75812,.48474163E-4,.354E-5,0
STRAND-1,2013-009E,2026-06-19T23:31:22.565856,14.37164594,.00078768,98.3923,351.1457,216.0202,144.0455,0,U,39090,999,69746,.79706741E-4,.194E-5,0
ZACUBE-1 (TSHEPISOSAT),2013-066B,2026-06-19T22:33:52.000416,15.01201080,.00411525,97.8072,133.2914,238.1921,121.5293,0,U,39417,999,68114,.18524965E-3,.2355E-4,0
GOMX-1,2013-066Q,2026-06-20T06:00:13.124160,14.69468214,.01301043,97.6478,11.5188,67.8557,293.6400,0,U,39430,999,67036,.18105356E-3,.1171E-4,0
